$$SOE
2460154.500000000, A.D. 2023-Jul-29 00:00:00.0000, -2.772589849693965E+08, -2.367195303322458E+07, 7.324788390342164E+07,
2460161.500000000, A.D. 2023-Aug-05 00:00:00.0000, -2.761527288594650E+08, -3.587292556270491E+07, 6.913871636402115E+07,
2460168.500000000, A.D. 2023-Aug-12 00:00:00.0000, -2.744790994743051E+08, -4.800016300392716E+07, 6.488749612008896E+07,
2460175.500000000, A.D. 2023-Aug-19 00:00:00.0000, -2.722366335498371E+08, -6.002789041443596E+07, 6.050179921368419E+07,
2460182.500000000, A.D. 2023-Aug-26 00:00:00.0000, -2.694250203747091E+08, -7.193008669752389E+07, 5.598961336534683E+07,
2460189.500000000, A.D. 2023-Sep-02 00:00:00.0000, -2.660451438520681E+08, -8.368053430196269E+07, 5.135933477948429E+07,
2460196.500000000, A.D. 2023-Sep-09 00:00:00.0000, -2.620991234909464E+08, -9.525287322044881E+07, 4.661976333783400E+07,
2460203.500000000, A.D. 2023-Sep-16 00:00:00.0000, -2.575903537663441E+08, -1.066206594364243E+08, 4.178009601779182E+07,
2460210.500000000, A.D. 2023-Sep-23 00:00:00.0000, -2.525235410082727E+08, -1.177574275892230E+08, 3.684991837639055E+07,
2460217.500000000, A.D. 2023-Sep-30 00:00:00.0000, -2.469047377031291E+08, -1.286367566831043E+08, 3.183919408209692E+07,
2460224.500000000, A.D. 2023-Oct-07 00:00:00.0000, -2.407413760699923E+08, -1.392323393558913E+08, 2.675825251953569E+07,
2460231.500000000, A.D. 2023-Oct-14 00:00:00.0000, -2.340422993503758E+08, -1.495180579486137E+08, 2.161777396143855E+07,
2460238.500000000, A.D. 2023-Oct-21 00:00:00.0000, -2.268177870362058E+08, -1.594680656477567E+08, 1.642877202054093E+07,
2460245.500000000, A.D. 2023-Oct-28 00:00:00.0000, -2.190795748917155E+08, -1.690568702482080E+08, 1.120257360127836E+07,
2460252.500000000, A.D. 2023-Nov-04 00:00:00.0000, -2.108408704413869E+08, -1.782594210464517E+08, 5.950796337191857E+06,
2460259.500000000, A.D. 2023-Nov-11 00:00:00.0000, -2.021163631774968E+08, -1.870511991390991E+08, 6.853234070331454E+05,
2460266.500000000, A.D. 2023-Nov-18 00:00:00.0000, -1.929222287233377E+08, -1.954083108027729E+08, -4.581724321375445E+06,
2460273.500000000, A.D. 2023-Nov-25 00:00:00.0000, -1.832761263591061E+08, -2.033075834697803E+08, -9.838018835701913E+06,
2460280.500000000, A.D. 2023-Dec-02 00:00:00.0000, -1.731971893785918E+08, -2.107266637681402E+08, -1.507105820621265E+07,
2460287.500000000, A.D. 2023-Dec-09 00:00:00.0000, -1.627060077178813E+08, -2.176441170678055E+08, -2.026820246730462E+07,
2460294.500000000, A.D. 2023-Dec-16 00:00:00.0000, -1.518246021273955E+08, -2.240395278339064E+08, -2.541671210075602E+07,
2460301.500000000, A.D. 2023-Dec-23 00:00:00.0000, -1.405763891543171E+08, -2.298935993463563E+08, -3.050378897714129E+07,
2460308.500000000, A.D. 2023-Dec-30 00:00:00.0000, -1.289861379603448E+08, -2.351882509201644E+08, -3.551661938494894E+07,
2460315.500000000, A.D. 2024-Jan-06 00:00:00.0000, -1.170799205114431E+08, -2.399067141168009E+08, -4.044241897385083E+07,
2460322.500000000, A.D. 2024-Jan-13 00:00:00.0000, -1.048850518253874E+08, -2.440336288457410E+08, -4.526847980725184E+07,
2460329.500000000, A.D. 2024-Jan-20 00:00:00.0000, -9.243001901962115E+07, -2.475551353355650E+08, -4.998221910314526E+07,
2460336.500000000, A.D. 2024-Jan-27 00:00:00.0000, -7.974440126701543E+07, -2.504589603647115E+08, -5.457122910657156E+07,
2460343.500000000, A.D. 2024-Feb-03 00:00:00.0000, -6.685878128783703E+07, -2.527344977353877E+08, -5.902332778083368E+07,
2460350.500000000, A.D. 2024-Feb-10 00:00:00.0000, -5.380464842967138E+07, -2.543728823205622E+08, -6.332660998197551E+07,
2460357.500000000, A.D. 2024-Feb-17 00:00:00.0000, -4.061429365250281E+07, -2.553670567299943E+08, -6.746949870752473E+07,
2460364.500000000, A.D. 2024-Feb-24 00:00:00.0000, -2.732069695510246E+07, -2.557118296729530E+08, -7.144079596614179E+07,
2460371.500000000, A.D. 2024-Mar-02 00:00:00.0000, -1.395740789299510E+07, -2.554039252142705E+08, -7.522973279687686E+07,
2460378.500000000, A.D. 2024-Mar-09 00:00:00.0000, -5.584198354284936E+05, -2.544420222517795E+08, -7.882601798024735E+07,
2460385.500000000, A.D. 2024-Mar-16 00:00:00.0000, 1.284196153364159E+07, -2.528267833995174E+08, -8.221988500432470E+07,
2460392.500000000, A.D. 2024-Mar-23 00:00:00.0000, 2.620925435098803E+07, -2.505608716644302E+08, -8.540213674724500E+07,
2460399.500000000, A.D. 2024-Mar-30 00:00:00.0000, 3.950893799287299E+07, -2.476489545512871E+08, -8.836418724343184E+07,
2460406.500000000, A.D. 2024-Apr-06 00:00:00.0000, 5.270659085799880E+07, -2.440976986929838E+08, -9.109810041381545E+07,
2460413.500000000, A.D. 2024-Apr-13 00:00:00.0000, 6.576803085264590E+07, -2.399157540444289E+08, -9.359662562596007E+07,
2460420.500000000, A.D. 2024-Apr-20 00:00:00.0000, 7.865945638950804E+07, -2.351137249932489E+08, -9.585322942619096E+07,
2460427.500000000, A.D. 2024-Apr-27 00:00:00.0000, 9.134758514216232E+07, -2.297041291303466E+08, -9.786212304408200E+07,
2460434.500000000, A.D. 2024-May-04 00:00:00.0000, 1.037997894192225E+08, -2.237013447150907E+08, -9.961828548036286E+07,
2460441.500000000, A.D. 2024-May-11 00:00:00.0000, 1.159842272102856E+08, -2.171215474142492E+08, -1.011174820111081E+08,
2460448.500000000, A.D. 2024-May-18 00:00:00.0000, 1.278699678558204E+08, -2.099826369073326E+08, -1.023562779759940E+08,
2460455.500000000, A.D. 2024-May-25 00:00:00.0000, 1.394271113107055E+08, -2.023041541021627E+08, -1.033320477739610E+08,
2460462.500000000, A.D. 2024-Jun-01 00:00:00.0000, 1.506269001027025E+08, -1.941071898600215E+08, -1.040429790559673E+08,
2460469.500000000, A.D. 2024-Jun-08 00:00:00.0000, 1.614418233900573E+08, -1.854142861892171E+08, -1.044880721840933E+08,
2460476.500000000, A.D. 2024-Jun-15 00:00:00.0000, 1.718457127983894E+08, -1.762493303817005E+08, -1.046671350598176E+08,
2460483.500000000, A.D. 2024-Jun-22 00:00:00.0000, 1.818138284362790E+08, -1.666374419973106E+08, -1.045807732979622E+08,
2460490.500000000, A.D. 2024-Jun-29 00:00:00.0000, 1.913229325033551E+08, -1.566048556256098E+08, -1.042303759084654E+08,
2460497.500000000, A.D. 2024-Jul-06 00:00:00.0000, 2.003513528109571E+08, -1.461788030130084E+08, -1.036180971799022E+08,
2460504.500000000, A.D. 2024-Jul-13 00:00:00.0000, 2.088790379838682E+08, -1.353873928454323E+08, -1.027468350056335E+08,
2460511.500000000, A.D. 2024-Jul-20 00:00:00.0000, 2.168876023131245E+08, -1.242594881357460E+08, -1.016202057058104E+08,
2460518.500000000, A.D. 2024-Jul-27 00:00:00.0000, 2.243603596860148E+08, -1.128245832350568E+08, -1.002425157175068E+08,
2460525.500000000, A.D. 2024-Aug-03 00:00:00.0000, 2.312823470673610E+08, -1.011126818473654E+08, -9.861873058006591E+07,
2460532.500000000, A.D. 2024-Aug-10 00:00:00.0000, 2.376403380089372E+08, -8.915417698920949E+07, -9.675444161404523E+07,
2460539.500000000, A.D. 2024-Aug-17 00:00:00.0000, 2.434228466440439E+08, -7.697973373278770E+07, -9.465583068435493E+07,
2460546.500000000, A.D. 2024-Aug-24 00:00:00.0000, 2.486201226902354E+08, -6.462017553162491E+07, -9.232963343881731E+07,
2460553.500000000, A.D. 2024-Aug-31 00:00:00.0000, 2.532241381390201E+08, -5.210637487954162E+07, -8.978310141482031E+07,
2460560.500000000, A.D. 2024-Sep-07 00:00:00.0000, 2.572285666099067E+08, -3.946914876881996E+07, -8.702396339427167E+07,
2460567.500000000, A.D. 2024-Sep-14 00:00:00.0000, 2.606287561121081E+08, -2.673915843714524E+07, -8.406038627176940E+07,
2460574.500000000, A.D. 2024-Sep-21 00:00:00.0000, 2.634216938887511E+08, -1.394681338687105E+07, -8.090093554253042E+07,
2460581.500000000, A.D. 2024-Sep-28 00:00:00.0000, 2.656059635663332E+08, -1.122183219593991E+06, -7.755453592552295E+07,
2460588.500000000, A.D. 2024-Oct-05 00:00:00.0000, 2.671816989736986E+08, 1.170508250266973E+07, -7.403043271780428E+07,
2460595.500000000, A.D. 2024-Oct-12 00:00:00.0000, 2.681505349623672E+08, 2.450582923359092E+07, -7.033815384269956E+07,
2460602.500000000, A.D. 2024-Oct-19 00:00:00.0000, 2.685155541644727E+08, 3.725146694457337E+07, -6.648747267607075E+07,
2460609.500000000, A.D. 2024-Oct-26 00:00:00.0000, 2.682812303243434E+08, 4.991403337549475E+07, -6.248837191287915E+07,
2460616.500000000, A.D. 2024-Nov-02 00:00:00.0000, 2.674533691018257E+08, 6.246625096735910E+07, -5.835100868077566E+07,
2460623.500000000, A.D. 2024-Nov-09 00:00:00.0000, 2.660390470497441E+08, 7.488157763121088E+07, -5.408568104690933E+07,
2460630.500000000, A.D. 2024-Nov-16 00:00:00.0000, 2.640465493563502E+08, 8.713425153536074E+07, -4.970279602752279E+07,
2460637.500000000, A.D. 2024-Nov-23 00:00:00.0000, 2.614853069215217E+08, 9.919933008657655E+07, -4.521283918746325E+07,
2460644.500000000, A.D. 2024-Nov-30 00:00:00.0000, 2.583658334551544E+08, 1.110527233234991E+08, -4.062634590671503E+07,
2460651.500000000, A.D. 2024-Dec-07 00:00:00.0000, 2.546996634514741E+08, 1.226712224227934E+08, -3.595387434961148E+07,
2460658.500000000, A.D. 2024-Dec-14 00:00:00.0000, 2.504992907219925E+08, 1.340325248341753E+08, -3.120597998025022E+07,
2460665.500000000, A.D. 2024-Dec-21 00:00:00.0000, 2.457781054934124E+08, 1.451152551204921E+08, -2.639319150267002E+07,
2460672.500000000, A.D. 2024-Dec-28 00:00:00.0000, 2.405503323317729E+08, 1.558989788516141E+08, -2.152598862856431E+07,
2460679.500000000, A.D. 2025-Jan-04 00:00:00.0000, 2.348309717057029E+08, 1.663642122460963E+08, -1.661478168287363E+07,
2460686.500000000, A.D. 2025-Jan-11 00:00:00.0000, 2.286357435473663E+08, 1.764924295694451E+08, -1.166989270652127E+07,
2460693.500000000, A.D. 2025-Jan-18 00:00:00.0000, 2.219810320742111E+08, 1.862660677249906E+08, -6.701538004147738E+06,
2460700.500000000, A.D. 2025-Jan-25 00:00:00.0000, 2.148838322766460E+08, 1.956685278929265E+08, -1.719812142028570E+06,
2460707.500000000, A.D. 2025-Feb-01 00:00:00.0000, 2.073616983806400E+08, 2.046841744899827E+08, 3.265326652487755E+06,
2460714.500000000, A.D. 2025-Feb-08 00:00:00.0000, 1.994326944177347E+08, 2.132983317550165E+08, 8.244069761727005E+06,
$$EOE